{
    "links": {
        "self": "http://www.neowsapp.com/rest/v1/neo/3792434?api_key=iIulBulltgU6a56xZRHN4H3l9WmuAYTsLGpBGhQ2"
    },
    "id": "3792434",
    "neo_reference_id": "3792434",
    "name": "(2017 XW61)",
    "designation": "2017 XW61",
    "nasa_jpl_url": "http://ssd.jpl.nasa.gov/sbdb.cgi?sstr=3792434",
    "absolute_magnitude_h": 25.5,
    "estimated_diameter": {
        "kilometers": {
            "estimated_diameter_min": 0.0211132445,
            "estimated_diameter_max": 0.0472106499
        },
        "meters": {
            "estimated_diameter_min": 21.113244479,
            "estimated_diameter_max": 47.2106498806
        },
        "miles": {
            "estimated_diameter_min": 0.0131191578,
            "estimated_diameter_max": 0.0293353287
        },
        "feet": {
            "estimated_diameter_min": 69.2691770164,
            "estimated_diameter_max": 154.8905885541
        }
    },
    "is_potentially_hazardous_asteroid": false,
    "close_approach_data": [
        {
            "close_approach_date": "2017-12-18",
            "close_approach_date_full": "2017-Dec-18 04:33",
            "epoch_date_close_approach": 1513571580000,
            "relative_velocity": {
                "kilometers_per_second": "11.715554217",
                "kilometers_per_hour": "42175.995181047",
                "miles_per_hour": "26206.5232279122"
            },
            "miss_distance": {
                "astronomical": "0.0080013412",
                "lunar": "3.1125217268",
                "kilometers": "1196983.600663244",
                "miles": "743771.1203270072"
            },
            "orbiting_body": "Earth"
        },
        {
            "close_approach_date": "2017-12-18",
            "close_approach_date_full": "2017-Dec-18 12:21",
            "epoch_date_close_approach": 1513599660000,
            "relative_velocity": {
                "kilometers_per_second": "12.2269370761",
                "kilometers_per_hour": "44016.9734739456",
                "miles_per_hour": "27350.4355455191"
            },
            "miss_distance": {
                "astronomical": "0.0088111533",
                "lunar": "3.4275386337",
                "kilometers": "1318129.765923471",
                "miles": "819047.8567910598"
            },
            "orbiting_body": "Moon"
        }
    ],
    "orbital_data": {
        "orbit_id": "3",
        "orbit_determination_date": "2019-12-04 07:16:59",
        "first_observation_date": "2017-12-08",
        "last_observation_date": "2017-12-16",
        "data_arc_in_days": 8,
        "observations_used": 75,
        "orbit_uncertainty": "7",
        "minimum_orbit_intersection": ".00739818",
        "jupiter_tisserand_invariant": "3.442",
        "epoch_osculation": "2459000.5",
        "eccentricity": ".5927323684969341",
        "semi_major_axis": "2.163975954935065",
        "inclination": "3.230206333173965",
        "ascending_node_longitude": "258.0074410230902",
        "orbital_period": "1162.725167673189",
        "perihelion_distance": ".8813173617959891",
        "perihelion_argument": "231.7749839380125",
        "aphelion_distance": "3.446634548074141",
        "perihelion_time": "2459300.255076984227",
        "mean_anomaly": "267.1905978174777",
        "mean_motion": ".3096174487393452",
        "equinox": "J2000",
        "orbit_class": {
            "orbit_class_type": "APO",
            "orbit_class_description": "Near-Earth asteroid orbits which cross the Earth’s orbit similar to that of 1862 Apollo",
            "orbit_class_range": "a (semi-major axis) > 1.0 AU; q (perihelion) < 1.017 AU"
        }
    },
    "is_sentry_object": false
}